[{"OBJECT_NAME":"STARLINK-3672","OBJECT_ID":"2022-025U","EPOCH":"2026-03-09T06:50:30.117984","MEAN_MOTION":15.06421762,"ECCENTRICITY":0.00016158,"INCLINATION":53.0558,"RA_OF_ASC_NODE":32.701,"ARG_OF_PERICENTER":75.7429,"MEAN_ANOMALY":284.374,"EPHEMERIS_TYPE":0,"CLASSIFICATION_TYPE":"U","NORAD_CAT_ID":51974,"ELEMENT_SET_NO":999,"REV_AT_EPOCH":22085,"BSTAR":0.00017516348,"MEAN_MOTION_DOT":2.33e-5,"MEAN_MOTION_DDOT":0},{"OBJECT_NAME":"CZ-4B DEB","OBJECT_ID":"2008-053L","EPOCH":"2026-03-08T19:52:33.417984","MEAN_MOTION":15.09778257,"ECCENTRICITY":0.00077037,"INCLINATION":97.7892,"RA_OF_ASC_NODE":87.441,"ARG_OF_PERICENTER":237.5543,"MEAN_ANOMALY":122.4941,"EPHEMERIS_TYPE":0,"CLASSIFICATION_TYPE":"U","NORAD_CAT_ID":36290,"ELEMENT_SET_NO":999,"REV_AT_EPOCH":71411,"BSTAR":0.00021001,"MEAN_MOTION_DOT":3.326e-5,"MEAN_MOTION_DDOT":0}]
